[{"OBJECT_NAME":"OBJECT L","OBJECT_ID":"2023-085L","EPOCH":"2026-03-09T23:02:21.999840","MEAN_MOTION":15.29079976,"ECCENTRICITY":0.0005428,"INCLINATION":97.486,"RA_OF_ASC_NODE":178.8598,"ARG_OF_PERICENTER":50.8528,"MEAN_ANOMALY":309.3193,"EPHEMERIS_TYPE":0,"CLASSIFICATION_TYPE":"U","NORAD_CAT_ID":57014,"ELEMENT_SET_NO":999,"REV_AT_EPOCH":15144,"BSTAR":0.00063462603,"MEAN_MOTION_DOT":0.00017871,"MEAN_MOTION_DDOT":0},{"OBJECT_NAME":"STARLINK-32578","OBJECT_ID":"2024-210W","EPOCH":"2026-03-08T07:48:49.555584","MEAN_MOTION":15.27606556,"ECCENTRICITY":7.266e-5,"INCLINATION":42.9997,"RA_OF_ASC_NODE":187.3287,"ARG_OF_PERICENTER":232.2096,"MEAN_ANOMALY":127.869,"EPHEMERIS_TYPE":0,"CLASSIFICATION_TYPE":"U","NORAD_CAT_ID":61979,"ELEMENT_SET_NO":999,"REV_AT_EPOCH":7471,"BSTAR":0.0015408954,"MEAN_MOTION_DOT":0.00042418,"MEAN_MOTION_DDOT":0}]
